ATLAS CENTAUR R/B       
1 06155U 72065B   26036.66601226  .00002105  00000+0  29044-3 0  9992
2 06155  35.0008 133.4080 0033091 100.7119 259.7310 14.77593565836522
SL-8 R/B                
1 08459U 75112B   26036.57515332  .00000296  00000+0  10604-3 0  9990
2 08459  74.0594  77.9929 0015578 182.1210 177.9880 14.38187808627251
SL-3 R/B                
1 10114U 77057B   26036.91866430  .00018007  00000+0  38872-3 0  9993
2 10114  97.5731 207.4733 0008165  44.1447 316.0451 15.44568122663420
SEASAT 1                
1 10967U 78064A   26036.95330150  .00000464  00000+0  16811-3 0  9994
2 10967 108.0164  58.8962 0001510 291.8016  68.2969 14.46134067501920
SL-14 R/B               
1 11267U 79011B   26036.72179679  .00000995  00000+0  95772-4 0  9996
2 11267  82.5258 126.9021 0016565 159.4605 200.7285 14.91868600524012
SL-8 R/B                
1 11574U 79089B   26036.83997790  .00000403  00000+0  12979-3 0  9997
2 11574  74.0696 149.9980 0016432 326.8042  33.2082 14.42330292431515
SL-14 R/B               
1 11672U 80005B   26036.91517241  .00000971  00000+0  95881-4 0  9998
2 11672  82.5173 337.3669 0014122 269.8931  90.0670 14.90887063471752
SL-8 R/B                
1 12139U 81003B   26036.93460795  .00026297  00000+0  69774-3 0  9999
2 12139  82.9396 319.3598 0263787 289.5955  67.6972 15.09812625309883
SL-3 R/B                
1 12465U 81046B   26036.91323483  .00017623  00000+0  42173-3 0  9995
2 12465  81.2347 327.8664 0020571 126.1389 234.1761 15.41100903433532
SL-3 R/B                
1 12904U 81103B   26036.93519462  .00008396  00000+0  37667-3 0  9992
2 12904  81.1559 250.6787 0013930  35.9176 324.2989 15.20990427968402
SL-3 R/B                
1 13068U 82013B   26036.89118296  .00006654  00000+0  29139-3 0  9990
2 13068  81.1742 198.0250 0021842 287.8196  72.0653 15.21661175399511
SL-3 R/B                
1 13154U 82039B   26036.91541715  .00003687  00000+0  22376-3 0  9992
2 13154  81.1615 252.5852 0030084  68.3984 292.0442 15.09905391376843
