CCSDS_OMM_VERS = 2.0
CREATION_DATE  = 
ORIGINATOR     = 

OBJECT_NAME    = ATLAS CENTAUR R/B
OBJECT_ID      = 1972-065B
CENTER_NAME    = EARTH
REF_FRAME      = TEME
TIME_SYSTEM    = UTC
MEAN_ELEMENT_THEORY = SGP/SGP4

EPOCH          = 2026-02-05T15:59:03.459264
MEAN_MOTION    = 14.77593565
ECCENTRICITY   = .0033091
INCLINATION    = 35.0008
RA_OF_ASC_NODE = 133.4080
ARG_OF_PERICENTER = 100.7119
MEAN_ANOMALY   = 259.7310

EPHEMERIS_TYPE = 0
CLASSIFICATION_TYPE = U
NORAD_CAT_ID   = 6155
ELEMENT_SET_NO = 999
REV_AT_EPOCH   = 83652
BSTAR          = .29044E-3
MEAN_MOTION_DOT = .2105E-4
MEAN_MOTION_DDOT = 0

CCSDS_OMM_VERS = 2.0
CREATION_DATE  = 
ORIGINATOR     = 

OBJECT_NAME    = SL-8 R/B
OBJECT_ID      = 1975-112B
CENTER_NAME    = EARTH
REF_FRAME      = TEME
TIME_SYSTEM    = UTC
MEAN_ELEMENT_THEORY = SGP/SGP4

EPOCH          = 2026-02-05T13:48:13.246848
MEAN_MOTION    = 14.38187808
ECCENTRICITY   = .0015578
INCLINATION    = 74.0594
RA_OF_ASC_NODE = 77.9929
ARG_OF_PERICENTER = 182.1210
MEAN_ANOMALY   = 177.9880

EPHEMERIS_TYPE = 0
CLASSIFICATION_TYPE = U
NORAD_CAT_ID   = 8459
ELEMENT_SET_NO = 999
REV_AT_EPOCH   = 62725
BSTAR          = .10604E-3
MEAN_MOTION_DOT = .296E-5
MEAN_MOTION_DDOT = 0

CCSDS_OMM_VERS = 2.0
CREATION_DATE  = 
ORIGINATOR     = 

OBJECT_NAME    = SL-3 R/B
OBJECT_ID      = 1977-057B
CENTER_NAME    = EARTH
REF_FRAME      = TEME
TIME_SYSTEM    = UTC
MEAN_ELEMENT_THEORY = SGP/SGP4

EPOCH          = 2026-02-05T22:02:52.595520
MEAN_MOTION    = 15.44568122
ECCENTRICITY   = .00081654
INCLINATION    = 97.5731
RA_OF_ASC_NODE = 207.4733
ARG_OF_PERICENTER = 44.1447
MEAN_ANOMALY   = 316.0451

EPHEMERIS_TYPE = 0
CLASSIFICATION_TYPE = U
NORAD_CAT_ID   = 10114
ELEMENT_SET_NO = 999
REV_AT_EPOCH   = 66342
BSTAR          = .38872427E-3
MEAN_MOTION_DOT = .18007E-3
MEAN_MOTION_DDOT = 0

CCSDS_OMM_VERS = 2.0
CREATION_DATE  = 
ORIGINATOR     = 

OBJECT_NAME    = SEASAT 1
OBJECT_ID      = 1978-064A
CENTER_NAME    = EARTH
REF_FRAME      = TEME
TIME_SYSTEM    = UTC
MEAN_ELEMENT_THEORY = SGP/SGP4

EPOCH          = 2026-02-05T22:52:45.249600
MEAN_MOTION    = 14.46134067
ECCENTRICITY   = .00015108
INCLINATION    = 108.0164
RA_OF_ASC_NODE = 58.8962
ARG_OF_PERICENTER = 291.8016
MEAN_ANOMALY   = 68.2969

EPHEMERIS_TYPE = 0
CLASSIFICATION_TYPE = U
NORAD_CAT_ID   = 10967
ELEMENT_SET_NO = 999
REV_AT_EPOCH   = 50192
BSTAR          = .16810903E-3
MEAN_MOTION_DOT = .464E-5
MEAN_MOTION_DDOT = 0

CCSDS_OMM_VERS = 2.0
CREATION_DATE  = 
ORIGINATOR     = 

OBJECT_NAME    = SL-14 R/B
OBJECT_ID      = 1979-011B
CENTER_NAME    = EARTH
REF_FRAME      = TEME
TIME_SYSTEM    = UTC
MEAN_ELEMENT_THEORY = SGP/SGP4

EPOCH          = 2026-02-05T17:19:23.242656
MEAN_MOTION    = 14.91868600
ECCENTRICITY   = .0016565
INCLINATION    = 82.5258
RA_OF_ASC_NODE = 126.9021
ARG_OF_PERICENTER = 159.4605
MEAN_ANOMALY   = 200.7285

EPHEMERIS_TYPE = 0
CLASSIFICATION_TYPE = U
NORAD_CAT_ID   = 11267
ELEMENT_SET_NO = 999
REV_AT_EPOCH   = 52401
BSTAR          = .95772E-4
MEAN_MOTION_DOT = .995E-5
MEAN_MOTION_DDOT = 0

CCSDS_OMM_VERS = 2.0
CREATION_DATE  = 
ORIGINATOR     = 

OBJECT_NAME    = SL-8 R/B
OBJECT_ID      = 1979-089B
CENTER_NAME    = EARTH
REF_FRAME      = TEME
TIME_SYSTEM    = UTC
MEAN_ELEMENT_THEORY = SGP/SGP4

EPOCH          = 2026-02-05T20:09:34.090560
MEAN_MOTION    = 14.42330292
ECCENTRICITY   = .00164325
INCLINATION    = 74.0696
RA_OF_ASC_NODE = 149.9980
ARG_OF_PERICENTER = 326.8042
MEAN_ANOMALY   = 33.2082

EPHEMERIS_TYPE = 0
CLASSIFICATION_TYPE = U
NORAD_CAT_ID   = 11574
ELEMENT_SET_NO = 999
REV_AT_EPOCH   = 43151
BSTAR          = .12979398E-3
MEAN_MOTION_DOT = .403E-5
MEAN_MOTION_DDOT = 0

CCSDS_OMM_VERS = 2.0
CREATION_DATE  = 
ORIGINATOR     = 

OBJECT_NAME    = SL-14 R/B
OBJECT_ID      = 1980-005B
CENTER_NAME    = EARTH
REF_FRAME      = TEME
TIME_SYSTEM    = UTC
MEAN_ELEMENT_THEORY = SGP/SGP4

EPOCH          = 2026-02-05T21:57:50.896224
MEAN_MOTION    = 14.90887063
ECCENTRICITY   = .00141226
INCLINATION    = 82.5173
RA_OF_ASC_NODE = 337.3669
ARG_OF_PERICENTER = 269.8931
MEAN_ANOMALY   = 90.0670

EPHEMERIS_TYPE = 0
CLASSIFICATION_TYPE = U
NORAD_CAT_ID   = 11672
ELEMENT_SET_NO = 999
REV_AT_EPOCH   = 47175
BSTAR          = .95881266E-4
MEAN_MOTION_DOT = .971E-5
MEAN_MOTION_DDOT = 0

CCSDS_OMM_VERS = 2.0
CREATION_DATE  = 
ORIGINATOR     = 

OBJECT_NAME    = SL-8 R/B
OBJECT_ID      = 1981-003B
CENTER_NAME    = EARTH
REF_FRAME      = TEME
TIME_SYSTEM    = UTC
MEAN_ELEMENT_THEORY = SGP/SGP4

EPOCH          = 2026-02-05T22:25:50.126880
MEAN_MOTION    = 15.09812625
ECCENTRICITY   = .02637878
INCLINATION    = 82.9396
RA_OF_ASC_NODE = 319.3598
ARG_OF_PERICENTER = 289.5955
MEAN_ANOMALY   = 67.6972

EPHEMERIS_TYPE = 0
CLASSIFICATION_TYPE = U
NORAD_CAT_ID   = 12139
ELEMENT_SET_NO = 999
REV_AT_EPOCH   = 30988
BSTAR          = .69773759E-3
MEAN_MOTION_DOT = .26297E-3
MEAN_MOTION_DDOT = 0

CCSDS_OMM_VERS = 2.0
CREATION_DATE  = 
ORIGINATOR     = 

OBJECT_NAME    = SL-3 R/B
OBJECT_ID      = 1981-046B
CENTER_NAME    = EARTH
REF_FRAME      = TEME
TIME_SYSTEM    = UTC
MEAN_ELEMENT_THEORY = SGP/SGP4

EPOCH          = 2026-02-05T21:55:03.489312
MEAN_MOTION    = 15.41100903
ECCENTRICITY   = .0020571
INCLINATION    = 81.2347
RA_OF_ASC_NODE = 327.8664
ARG_OF_PERICENTER = 126.1389
MEAN_ANOMALY   = 234.1761

EPHEMERIS_TYPE = 0
CLASSIFICATION_TYPE = U
NORAD_CAT_ID   = 12465
ELEMENT_SET_NO = 999
REV_AT_EPOCH   = 43353
BSTAR          = .42173351E-3
MEAN_MOTION_DOT = .17623E-3
MEAN_MOTION_DDOT = 0

CCSDS_OMM_VERS = 2.0
CREATION_DATE  = 
ORIGINATOR     = 

OBJECT_NAME    = SL-3 R/B
OBJECT_ID      = 1981-103B
CENTER_NAME    = EARTH
REF_FRAME      = TEME
TIME_SYSTEM    = UTC
MEAN_ELEMENT_THEORY = SGP/SGP4

EPOCH          = 2026-02-05T22:26:40.815168
MEAN_MOTION    = 15.20990427
ECCENTRICITY   = .00139308
INCLINATION    = 81.1559
RA_OF_ASC_NODE = 250.6787
ARG_OF_PERICENTER = 35.9176
MEAN_ANOMALY   = 324.2989

EPHEMERIS_TYPE = 0
CLASSIFICATION_TYPE = U
NORAD_CAT_ID   = 12904
ELEMENT_SET_NO = 999
REV_AT_EPOCH   = 96840
BSTAR          = .37667476E-3
MEAN_MOTION_DOT = .8396E-4
MEAN_MOTION_DDOT = 0

CCSDS_OMM_VERS = 2.0
CREATION_DATE  = 
ORIGINATOR     = 

OBJECT_NAME    = SL-3 R/B
OBJECT_ID      = 1982-013B
CENTER_NAME    = EARTH
REF_FRAME      = TEME
TIME_SYSTEM    = UTC
MEAN_ELEMENT_THEORY = SGP/SGP4

EPOCH          = 2026-02-05T21:23:18.207744
MEAN_MOTION    = 15.21661175
ECCENTRICITY   = .0021842
INCLINATION    = 81.1742
RA_OF_ASC_NODE = 198.0250
ARG_OF_PERICENTER = 287.8196
MEAN_ANOMALY   = 72.0653

EPHEMERIS_TYPE = 0
CLASSIFICATION_TYPE = U
NORAD_CAT_ID   = 13068
ELEMENT_SET_NO = 999
REV_AT_EPOCH   = 39951
BSTAR          = .29138653E-3
MEAN_MOTION_DOT = .6654E-4
MEAN_MOTION_DDOT = 0

CCSDS_OMM_VERS = 2.0
CREATION_DATE  = 
ORIGINATOR     = 

OBJECT_NAME    = SL-3 R/B
OBJECT_ID      = 1982-039B
CENTER_NAME    = EARTH
REF_FRAME      = TEME
TIME_SYSTEM    = UTC
MEAN_ELEMENT_THEORY = SGP/SGP4

EPOCH          = 2026-02-05T21:58:12.041760
MEAN_MOTION    = 15.09905391
ECCENTRICITY   = .0030084
INCLINATION    = 81.1615
RA_OF_ASC_NODE = 252.5852
ARG_OF_PERICENTER = 68.3984
MEAN_ANOMALY   = 292.0442

EPHEMERIS_TYPE = 0
CLASSIFICATION_TYPE = U
NORAD_CAT_ID   = 13154
ELEMENT_SET_NO = 999
REV_AT_EPOCH   = 37684
BSTAR          = .22375742E-3
MEAN_MOTION_DOT = .3687E-4
MEAN_MOTION_DDOT = 0

